NORAD_CAT_ID,OBJECT_NAME,OBJECT_TYPE,EPOCH,MEAN_MOTION,ECCENTRICITY,INCLINATION,RA_OF_ASC_NODE,ARG_OF_PERICENTER,MEAN_ANOMALY,BSTAR,MEAN_MOTION_DOT,MEAN_MOTION_DDOT,TLE_LINE0,TLE_LINE1,TLE_LINE2,SEMIMAJOR_AXIS,PERIOD,APOGEE,PERIGEE,DECAYED
51745.0,STARLINK-3449,PAYLOAD,2023-11-15 13:01:46,15.08840853,0.0001566,53.2134,153.1327,85.0117,275.1054,5.8154e-05,6.38e-06,0.0,0 STARLINK-3449,1 51745U 22016AH  23319.54289546  .00000638  00000-0  58154-4 0  9998,2 51745  53.2134 153.1327 0001566  85.0117 275.1054 15.08840853 95970,6917.878,95.438,540.826,538.659,0.0
51745.0,STARLINK-3449,PAYLOAD,2023-11-15 19:23:18,15.08842709,0.0001494,53.2148,151.9445,86.1267,273.9895,6.1748e-05,6.95e-06,0.0,0 STARLINK-3449,1 51745U 22016AH  23319.80785368  .00000695  00000-0  61748-4 0  9996,2 51745  53.2148 151.9445 0001494  86.1267 273.9895 15.08842709 97142,6917.872,95.437,540.771,538.704,0.0
51745.0,STARLINK-3449,PAYLOAD,2023-11-16 19:14:05,15.08843876,0.0001492,53.2164,147.4841,91.0887,269.0276,5.8233e-05,6.39e-06,0.0,0 STARLINK-3449,1 51745U 22016AH  23320.80145084  .00000639  00000-0  58233-4 0  9996,2 51745  53.2164 147.4841 0001492  91.0887 269.0276 15.08843876 96167,6917.869,95.437,540.766,538.701,0.0
51745.0,STARLINK-3449,PAYLOAD,2023-11-17 04:46:24,15.08842342,0.0001342,53.2162,145.7003,88.2472,271.8674,5.1841e-05,5.37e-06,0.0,0 STARLINK-3449,1 51745U 22016AH  23321.19889213  .00000537  00000-0  51841-4 0  9993,2 51745  53.2162 145.7003 0001342  88.2472 271.8674 15.08842342 97350,6917.873,95.437,540.667,538.81,0.0
51745.0,STARLINK-3449,PAYLOAD,2023-11-17 12:43:20,15.08839827,0.0001643,53.2179,144.2134,93.2324,266.8856,2.562e-05,1.2e-06,0.0,0 STARLINK-3449,1 51745U 22016AH  23321.53009545  .00000120  00000-0  25620-4 0  9997,2 51745  53.2179 144.2134 0001643  93.2324 266.8856 15.08839827 96273,6917.881,95.438,540.883,538.609,0.0
51745.0,STARLINK-3449,PAYLOAD,2023-11-17 19:04:52,15.08840098,0.0001658,53.2185,143.0239,94.8796,265.2385,2.0172e-05,3.3e-07,0.0,0 STARLINK-3449,1 51745U 22016AH  23321.79505529  .00000033  00000-0  20172-4 0  9998,2 51745  53.2185 143.0239 0001658  94.8796 265.2385 15.08840098 96316,6917.88,95.438,540.892,538.598,0.0
51745.0,STARLINK-3449,PAYLOAD,2023-11-18 10:58:44,15.08850985,0.0001418,53.2163,140.0506,95.869,264.2464,-0.00013961,-2.51e-05,0.0,0 STARLINK-3449,1 51745U 22016AH  23322.45745730 -.00002510  00000-0 -13961-3 0  9993,2 51745  53.2163 140.0506 0001418  95.8690 264.2464 15.08850985 97543,6917.847,95.437,540.693,538.731,0.0
51745.0,STARLINK-3449,PAYLOAD,2023-11-18 18:55:39,15.08848015,0.000143,53.2168,138.5636,95.2306,264.8849,-0.00012363,-2.255e-05,0.0,0 STARLINK-3449,1 51745U 22016AH  23322.78865648 -.00002255  00000-0 -12363-3 0  9991,2 51745  53.2168 138.5636 0001430  95.2306 264.8849 15.08848015 96460,6917.856,95.437,540.71,538.732,0.0
51745.0,STARLINK-3449,PAYLOAD,2023-11-19 12:24:54,15.0883903,0.0001358,53.2172,135.2925,92.4744,267.6403,9.0566e-05,1.154e-05,0.0,0 STARLINK-3449,1 51745U 22016AH  23323.51729577  .00001154  00000-0  90566-4 0  9990,2 51745  53.2172 135.2925 0001358  92.4744 267.6403 15.08839030 97706,6917.883,95.438,540.688,538.809,0.0
51745.0,STARLINK-3449,PAYLOAD,2023-11-19 18:46:26,15.08842044,0.0001343,53.2176,134.1032,92.2169,267.8977,9.7344e-05,1.262e-05,0.0,0 STARLINK-3449,1 51745U 22016AH  23323.78225384  .00001262  00000-0  97344-4 0  9997,2 51745  53.2176 134.1032 0001343  92.2169 267.8977 15.08842044 96616,6917.874,95.437,540.668,538.81,0.0
51745.0,STARLINK-3449,PAYLOAD,2023-11-20 12:15:41,15.08837053,0.0001304,53.2174,130.8324,91.3625,268.7517,6.0883e-05,6.81e-06,0.0,0 STARLINK-3449,1 51745U 22016AH  23324.51089899  .00000681  00000-0  60883-4 0  9990,2 51745  53.2174 130.8324 0001304  91.3625 268.7517 15.08837053 96721,6917.889,95.438,540.656,538.852,0.0
51745.0,STARLINK-3449,PAYLOAD,2023-11-20 18:37:14,15.08837587,0.0001302,53.2175,129.643,90.9897,269.1244,5.7503e-05,6.27e-06,0.0,0 STARLINK-3449,1 51745U 22016AH  23324.77585921  .00000627  00000-0  57503-4 0  9990,2 51745  53.2175 129.6430 0001302  90.9897 269.1244 15.08837587 97893,6917.888,95.438,540.653,538.852,0.0
51745.0,STARLINK-3449,PAYLOAD,2023-11-21 12:06:28,15.08841542,0.000128,53.2174,126.3719,88.496,271.6179,4.1696e-05,3.76e-06,0.0,0 STARLINK-3449,1 51745U 22016AH  23325.50449749  .00000376  00000-0  41696-4 0  9996,2 51745  53.2174 126.3719 0001280  88.4960 271.6179 15.08841542 96872,6917.876,95.437,540.626,538.855,0.0
51745.0,STARLINK-3449,PAYLOAD,2023-11-21 18:28:00,15.08846846,0.0001352,53.2178,125.1825,88.1617,271.953,6.5009e-05,7.47e-06,0.0,0 STARLINK-3449,1 51745U 22016AH  23325.76945346  .00000747  00000-0  65009-4 0  9994,2 51745  53.2178 125.1825 0001352  88.1617 271.9530 15.08846846 96918,6917.859,95.437,540.66,538.789,0.0
51745.0,STARLINK-3449,PAYLOAD,2023-11-22 10:21:52,15.08841843,0.0001426,53.2182,122.2089,86.0584,274.0571,8.3458e-05,1.041e-05,0.0,0 STARLINK-3449,1 51745U 22016AH  23326.43185605  .00001041  00000-0  83458-4 0  9999,2 51745  53.2182 122.2089 0001426  86.0584 274.0571 15.08841843 98143,6917.875,95.437,540.726,538.753,0.0
51745.0,STARLINK-3449,PAYLOAD,2023-11-22 16:43:24,15.08846194,0.0001462,53.2179,121.0194,85.753,274.3629,0.00011654,1.568e-05,0.0,0 STARLINK-3449,1 51745U 22016AH  23326.69681234  .00001568  00000-0  11654-3 0  9998,2 51745  53.2179 121.0194 0001462  85.7530 274.3629 15.08846194 97050,6917.861,95.437,540.738,538.715,0.0
51745.0,STARLINK-3449,PAYLOAD,2023-11-23 13:23:26,15.08833736,0.0001323,53.2178,117.1546,86.0945,274.0198,4.3986e-05,4.12e-06,0.0,0 STARLINK-3449,1 51745U 22016AH  23327.55794218  .00000412  00000-0  43986-4 0  9992,2 51745  53.2178 117.1546 0001323  86.0945 274.0198 15.08833736 97186,6917.9,95.438,540.68,538.849,0.0
51745.0,STARLINK-3449,PAYLOAD,2023-11-23 16:34:11,15.0888988,0.0001231,53.2176,116.5597,87.3713,272.742,-0.0007466,-0.00012167,0.0,0 STARLINK-3449,1 51745U 22016AH  23327.69040907 -.00012167  00000-0 -74660-3 0  9990,2 51745  53.2176 116.5597 0001231  87.3713 272.7420 15.08889880 98330,6917.728,95.434,540.445,538.741,0.0
51745.0,STARLINK-3449,PAYLOAD,2023-11-24 10:03:26,15.08836674,0.000156,53.2177,113.2885,96.8572,263.2598,1.9452e-05,2.2e-07,0.0,0 STARLINK-3449,1 51745U 22016AH  23328.41906212  .00000022  00000-0  19452-4 0  9995,2 51745  53.2177 113.2885 0001560  96.8572 263.2598 15.08836674 98444,6917.891,95.438,540.835,538.676,0.0
51745.0,STARLINK-3449,PAYLOAD,2023-11-24 13:14:13,15.08837426,0.0001568,53.2178,112.6939,99.5634,260.5535,2.6219e-05,1.29e-06,0.0,0 STARLINK-3449,1 51745U 22016AH  23328.55154164  .00000129  00000-0  26219-4 0  9998,2 51745  53.2178 112.6939 0001568  99.5634 260.5535 15.08837426 97339,6917.888,95.438,540.838,538.669,0.0
51745.0,STARLINK-3449,PAYLOAD,2023-11-24 16:24:59,15.08839227,0.0001626,53.2185,112.0996,101.1857,258.9318,3.75e-05,3.09e-06,0.0,0 STARLINK-3449,1 51745U 22016AH  23328.68402028  .00000309  00000-0  37500-4 0  9992,2 51745  53.2185 112.0996 0001626 101.1857 258.9318 15.08839227 97359,6917.883,95.438,540.873,538.623,0.0
51745.0,STARLINK-3449,PAYLOAD,2023-11-25 14:40:22,15.08842978,0.0001539,53.2184,107.9365,91.7119,268.405,0.00015089,2.114e-05,0.0,0 STARLINK-3449,1 51745U 22016AH  23329.61137667  .00002114  00000-0  15089-3 0  9993,2 51745  53.2184 107.9365 0001539  91.7119 268.4050 15.08842978 97490,6917.871,95.437,540.801,538.672,0.0
51745.0,STARLINK-3449,PAYLOAD,2023-11-25 19:26:30,15.08865817,0.0002865,53.2181,107.0332,144.2628,215.8557,0.00023906,3.521e-05,0.0,0 STARLINK-3449,1 51745U 22016AH  23329.81007494  .00003521  00000-0  23906-3 0  9999,2 51745  53.2181 107.0332 0002865 144.2628 215.8557 15.08865817 97523,6917.801,95.436,541.648,537.685,0.0
51745.0,STARLINK-3449,PAYLOAD,2023-11-26 09:44:59,15.08852281,0.0001558,53.2195,104.3649,107.6834,252.4329,0.00011063,1.474e-05,0.0,0 STARLINK-3449,1 51745U 22016AH  23330.40624388  .00001474  00000-0  11063-3 0  9999,2 51745  53.2195 104.3649 0001558 107.6834 252.4329 15.08852281 98749,6917.843,95.437,540.786,538.63,0.0
51745.0,STARLINK-3449,PAYLOAD,2023-11-26 14:31:08,15.08851041,0.0001409,53.2189,103.4732,98.7637,261.3514,8.9975e-05,1.145e-05,0.0,0 STARLINK-3449,1 51745U 22016AH  23330.60496398  .00001145  00000-0  89975-4 0  9992,2 51745  53.2189 103.4732 0001409  98.7637 261.3514 15.08851041 97647,6917.847,95.437,540.686,538.737,0.0
51745.0,STARLINK-3449,PAYLOAD,2023-11-27 14:21:57,15.08838379,0.0001591,53.2184,99.0068,119.8781,240.237,-0.00027963,-4.735e-05,0.0,0 STARLINK-3449,1 51745U 22016AH  23331.59858581 -.00004735  00000-0 -27963-3 0  9995,2 51745  53.2184  99.0068 0001591 119.8781 240.2370 15.08838379 97792,6917.885,95.438,540.851,538.65,0.0
51745.0,STARLINK-3449,PAYLOAD,2023-11-28 14:12:44,15.08834182,0.0001832,53.2193,94.5535,55.6471,304.4694,-6.2413e-06,-3.87e-06,0.0,0 STARLINK-3449,1 51745U 22016AH  23332.59218540 -.00000387  00000-0 -62413-5 0  9991,2 51745  53.2193  94.5535 0001832  55.6471 304.4694 15.08834182 97949,6917.898,95.438,541.031,538.496,0.0
51745.0,STARLINK-3449,PAYLOAD,2023-11-28 17:23:30,15.08847666,0.0001403,53.2193,93.9585,86.7397,273.3756,0.00010377,1.364e-05,0.0,0 STARLINK-3449,1 51745U 22016AH  23332.72465298  .00001364  00000-0  10377-3 0  9994,2 51745  53.2193  93.9585 0001403  86.7397 273.3756 15.08847666 99095,6917.857,95.437,540.693,538.751,0.0
51745.0,STARLINK-3449,PAYLOAD,2023-11-29 12:28:08,15.08839064,0.000158,53.2194,90.3935,98.7636,261.3535,0.000164,2.323e-05,0.0,0 STARLINK-3449,1 51745U 22016AH  23333.51954263  .00002323  00000-0  16400-3 0  9996,2 51745  53.2194  90.3935 0001580  98.7636 261.3535 15.08839064 99210,6917.883,95.438,540.841,538.655,0.0
51745.0,STARLINK-3449,PAYLOAD,2023-11-29 14:03:31,15.08853341,0.0002107,53.2188,90.0968,132.5506,227.5664,-2.8531e-05,-7.43e-06,0.0,0 STARLINK-3449,1 51745U 22016AH  23333.58577902 -.00000743  00000-0 -28531-4 0  9999,2 51745  53.2188  90.0968 0002107 132.5506 227.5664 15.08853341 98091,6917.84,95.437,541.162,538.247,0.0
